HST                     
1 20580U 90037B   22128.84097035  .00002224  00000+0  12113-3 0  9995
2 20580  28.4705  71.2490 0002513 332.0868  57.4008 15.10400705560229
POLAR                   
1 23802U 96013A   22124.89614831  .00000194  00000+0  00000+0 0  9997
2 23802  78.7561 242.0479 5831427 260.3551  32.8854  1.29846930125326
SWAS                    
1 25560U 98071A   22129.29474823  .00001341  00000+0  13193-3 0  9996
2 25560  69.8985  84.8356 0007232 356.1161   3.9937 14.94625998272432
CXO                     
1 25867U 99040B   22131.02399188  .00000912  00000+0  00000+0 0  9999
2 25867  46.4167 237.8374 8781425 232.6615 359.7744  0.37815092 11659
XMM-NEWTON              
1 25989U 99066A   22122.62001999 -.00000141  00000+0  00000+0 0  9993
2 25989  70.2088 305.5361 6107141  87.3235 359.7143  0.50129326 29811
TERRA                   
1 25994U 99068A   22129.48082726  .00000265  00000+0  68574-4 0  9990
2 25994  98.1381 202.2909 0001417  97.6495  12.8034 14.57150636190947
CLUSTER II-FM7 (SAMBA)  
1 26410U 00041A   22130.44103719  .00000474  00000+0  00000+0 0  9998
2 26410 133.9762 347.3939 5559663 198.6011   0.5626  0.44201230 13648
CLUSTER II-FM6 (SALSA)  
1 26411U 00041B   22130.41111244  .00000433  00000+0  00000+0 0  9993
2 26411 135.9866 350.6538 7196877 203.2636   0.5998  0.44215779 13689
CLUSTER II-FM5 (RUMBA)  
1 26463U 00045A   22130.41507127  .00000524  00000+0  00000+0 0  9994
2 26463 139.5538 350.9236 6714228 204.0266   0.5619  0.44215902 13580
CLUSTER II-FM8 (TANGO)  
1 26464U 00045B   22130.41978362  .00000473  00000+0  00000+0 0  9991
2 26464 133.9809 347.3906 5556617 198.6038   0.5499  0.44221472 13657
ODIN                    
1 26702U 01007A   22128.75664183  .00002663  00000+0  16915-3 0  9991
2 26702  97.5230 144.2273 0012253  71.1299 289.1258 15.09655202160287
TIMED                   
1 26998U 01055B   22128.92860621  .00000659  00000+0  74730-4 0  9998
2 26998  74.0736 358.3853 0002081 251.7283 108.3672 14.88610157107126
RHESSI                  
1 27370U 02004A   22129.05008146  .00021597  00000+0  49333-3 0  9993
2 27370  38.0319 248.1664 0007127 244.9639 115.0395 15.42116650120536
INTEGRAL                
1 27540U 02048A   22124.85555556  .00000168  00000+0  00000+0 0  9990
2 27540  74.0303  62.1275 8923731 299.0082   8.5987  0.37595251 20986
CORIOLIS                
1 27640U 03001A   22129.61655182  .00000060  00000+0  49469-4 0  9994
2 27640  98.7188 139.2226 0013673 205.1343 265.1617 14.19123004  1447
SORCE                   
1 27651U 03004A   22129.18545880  .00001134  00000+0  12962-3 0  9994
2 27651  39.9956  76.7325 0023716 199.5967 160.3912 14.89802756 47237
MOST                    
1 27843U 03031D   22128.91413728  .00000048  00000+0  42578-4 0  9992
2 27843  98.7086 137.0988 0008853 261.1941  98.8233 14.20678245977632
SCISAT 1                
1 27858U 03036A   22129.51086307  .00000419  00000+0  63723-4 0  9996
2 27858  73.9330 260.9735 0008995 303.9945  56.0374 14.77524397  9691
SWIFT                   
1 28485U 04047A   22128.95553305  .00003835  00000+0  22413-3 0  9995
2 28485  20.5562 227.6262 0010833 155.9056 204.1886 15.06164929957667
CLOUDSAT                
1 29107U 06016A   22129.14337038  .00000255  00000+0  59275-4 0  9990
2 29107  98.3252  88.9330 0004629  74.2598 285.9114 14.62955518853447
CALIPSO                 
1 29108U 06016B   22128.86772537  .00000774  00000+0  16105-3 0  9996
2 29108  98.3223  88.2376 0001459  87.3672 272.7696 14.62871407853235
HINODE (SOLAR-B)        
1 29479U 06041A   22129.50538344  .00000468  00000+0  96692-4 0  9993
2 29479  98.1232 145.1612 0018222 353.2490   6.8465 14.64780157835063
SJ-6C                   
1 29505U 06046A   22129.29780544  .00002440  00000+0  22319-3 0  9991
2 29505  97.7805 150.5774 0002781 243.2583 116.8331 14.95922767846848
SJ-6D                   
1 29506U 06046B   22129.43112238  .00000954  00000+0  94932-4 0  9996
2 29506  97.8002 150.8849 0002349  39.0227 321.1162 14.93978270846314
AGILE                   
1 31135U 07013A   22128.57749227  .00012774  00000+0  30619-3 0  9994
2 31135   2.4654 186.4257 0010710 186.4800 173.5115 15.37057664838191
AIM                     
1 31304U 07015A   22128.82926464  .00008064  00000+0  41100-3 0  9996
2 31304  97.8561  46.5702 0006152 135.9589 224.2134 15.17036053825180
FGRST (GLAST)           
1 33053U 08029A   22129.49980797  .00001565  00000+0  71652-4 0  9993
2 33053  25.5828  72.7724 0012357  88.8252 271.3699 15.12072686768013
WISE                    
1 36119U 09071A   22128.84780405  .00006733  00000+0  21309-3 0  9994
2 36119  97.2437 164.0668 0004235  90.9977 269.1751 15.33074061689431
SDO                     
1 36395U 10005A   22128.94820958 -.00000036  00000+0  00000+0 0  9990
2 36395  31.5791 109.8584 0001714 268.6840  87.7593  1.00272945 44980
CRYOSAT 2               
1 36508U 10013A   22128.90099477  .00000190  00000+0  46313-4 0  9997
2 36508  92.0301 274.4730 0006795  42.7899 317.3836 14.51895369640396
X-SAT                   
1 37389U 11015C   22129.38234407  .00000055  00000+0  41470-4 0  9994
2 37389  98.3387 164.6254 0015401  68.8453 291.4372 14.24418864574649
GCOM-W1 (SHIZUKU)       
1 38337U 12025A   22129.07435307  .00000378  00000+0  94019-4 0  9993
2 38337  98.2006  70.1671 0001502  61.0240 309.5228 14.57120588530574
NUSTAR                  
1 38358U 12031A   22128.40531255  .00002883  00000+0  22332-3 0  9999
2 38358   6.0276 295.1168 0010793 122.3010 237.8164 14.89208029538876
NEOSSAT                 
1 39089U 13009D   22128.77479981  .00000131  00000+0  61416-4 0  9995
2 39089  98.4253 326.0702 0012087  40.4065 319.8016 14.34649157481521
BRITE-AUSTRIA           
1 39091U 13009F   22128.54714103  .00000123  00000+0  57859-4 0  9998
2 39091  98.4090 326.8840 0011274  42.1147 318.0903 14.35259852481707
IRIS                    
1 39197U 13033A   22129.48502343  .00000680  00000+0  98271-4 0  9998
2 39197  97.9706 315.6771 0028097 152.6149 207.6550 14.79171791478239
HISAKI (SPRINT-A)       
1 39253U 13049A   22129.11767267  .00000161  00000+0  13176-3 0  9990
2 39253  29.7198 284.6498 0136640  98.2913 263.3177 13.55276611428801
CASSIOPE                
1 39265U 13055A   22129.13732263  .00011943  00000+0  31763-3 0  9992
2 39265  80.9636 309.0126 0627066  74.7216 292.2366 14.37799029446661
STSAT-3                 
1 39422U 13066G   22129.07860771  .00000674  00000+0  74243-4 0  9998
2 39422  97.4711 136.3518 0024036  55.7340 304.6156 14.90376727459972
SWARM B                 
1 39451U 13067A   22129.11506242  .00002271  00000+0  10303-3 0  9997
2 39451  87.7500  73.0769 0003325  88.5266 271.6359 15.20303626469573
SWARM A                 
1 39452U 13067B   22129.14329485  .00007603  00000+0  14618-3 0  9990
2 39452  87.3617 238.7729 0002672 115.4662 244.6874 15.47726889475915
SWARM C                 
1 39453U 13067C   22128.88408385  .00008634  00000+0  16616-3 0  9993
2 39453  87.3470 238.4193 0002627 115.2466 244.9065 15.47717783475799
BRITE-CA1 (TORONTO)     
1 40020U 14033L   22129.40335338  .00000445  00000+0  83359-4 0  9996
2 40020  97.7743 290.3610 0087549  28.9188 331.6828 14.66994390422049
OCO 2                   
1 40059U 14035A   22128.86296900  .00000345  00000+0  86540-4 0  9994
2 40059  98.1999  70.6940 0001429  98.7728 261.3632 14.57114873417565
BRITE-PL2 (HEWELIUSZ)   
1 40119U 14049B   22129.19763086  .00000908  00000+0  11252-3 0  9999
2 40119  97.8810 225.2336 0017478  15.4883 344.6863 14.85037975418274
RESURS P2               
1 40360U 14087A   22129.46682034  .00005076  00000+0  14611-3 0  9995
2 40360  97.2055 215.1576 0008195 221.7376 195.2654 15.36180826412279
MMS 1                   
1 40482U 15011A   22128.89087404 -.00000164  00000+0  00000+0 0  9991
2 40482  32.4787 106.6660 8624505  50.0416  11.0592  0.28429382 13192
MMS 2                   
1 40483U 15011B   22128.82687304 -.00000172  00000+0  00000+0 0  9999
2 40483  32.4772 106.6740 8625794  50.0322   4.5175  0.28432583 13251
MMS 3                   
1 40484U 15011C   22117.95509259 -.00000187  00000+0  00000+0 0  9990
2 40484  32.5075 107.0308 8614036  49.5891 331.9915  0.28416917 12896
MMS 4                   
1 40485U 15011D   22125.43660615 -.00000489  00000+0  00000+0 0  9992
2 40485  32.5353 106.8589 8622666  49.8342  17.5676  0.28434910 13150
ASTROSAT                
1 40930U 15052A   22129.29699121  .00001265  00000+0  87820-4 0  9996
2 40930   5.9965  97.4857 0009073 318.4617  41.4821 14.76590998357408
DAMPE                   
1 41173U 15078A   22129.55793176  .00000922  00000+0  40511-4 0  9993
2 41173  97.3761 120.9277 0013184 344.6625 163.1055 15.24363667355654
PISAT                   
1 41784U 16059B   22128.90606559  .00000495  00000+0  10312-3 0  9997
2 41784  97.9195 173.7900 0030425 295.5871  64.2188 14.63855990299902
HXMT (HUIYAN)           
1 42758U 17034A   22129.52938250  .00003026  00000+0  19494-3 0  9991
2 42758  43.0164 202.3694 0008337  27.4648  64.3685 15.10244534270295
FLYING LAPTOP           
1 42831U 17042G   22129.08806229  .00001178  00000+0  12207-3 0  9994
2 42831  97.4274 345.8272 0015079 135.0236 225.2218 14.91694851262220
PICSAT                  
1 43132U 18004X   22129.21056447  .00013262  00000+0  45457-3 0  9992
2 43132  97.3727 205.8307 0009311 134.4993 225.7010 15.30273205240407
ZHANGZHENG-1 (CSES)     
1 43194U 18015C   22129.51202940  .00007110  00000+0  32235-3 0  9991
2 43194  97.5162 260.3334 0008246 246.7056 177.5773 15.21123100236705
ICON                    
1 44628U 19068A   22128.92260312  .00002149  00000+0  18369-3 0  9993
2 44628  26.9886 206.9701 0018082 276.2793  83.5705 14.92685775140642
SALSAT                  
1 46495U 20068K   22128.78792245  .00003072  00000+0  22438-3 0  9996
2 46495  97.7262  70.0876 0017718  54.6817 305.6062 15.04300170 88229
IXPE                    
1 49954U 21121A   22128.40734189  .00002903  00000+0  20941-3 0  9991
2 49954   0.2314 316.5442 0011083  64.9136 338.5890 14.91221441 22447
